[{"OBJECT_NAME":"JY1SAT (JO-97)","OBJECT_ID":"2018-099AX","EPOCH":"2026-03-09T16:28:19.890048","MEAN_MOTION":15.30302629,"ECCENTRICITY":0.00047232,"INCLINATION":97.4249,"RA_OF_ASC_NODE":131.3625,"ARG_OF_PERICENTER":256.6795,"MEAN_ANOMALY":103.3919,"EPHEMERIS_TYPE":0,"CLASSIFICATION_TYPE":"U","NORAD_CAT_ID":43803,"ELEMENT_SET_NO":999,"REV_AT_EPOCH":39839,"BSTAR":0.00060804308,"MEAN_MOTION_DOT":0.00017774,"MEAN_MOTION_DDOT":0},{"OBJECT_NAME":"STARLINK-35343","OBJECT_ID":"2026-003A","EPOCH":"2026-03-09T11:53:22.093440","MEAN_MOTION":15.27593914,"ECCENTRICITY":0.00016716,"INCLINATION":43.0002,"RA_OF_ASC_NODE":228.2092,"ARG_OF_PERICENTER":271.3939,"MEAN_ANOMALY":88.6721,"EPHEMERIS_TYPE":0,"CLASSIFICATION_TYPE":"U","NORAD_CAT_ID":67334,"ELEMENT_SET_NO":999,"REV_AT_EPOCH":879,"BSTAR":0.0012290218,"MEAN_MOTION_DOT":0.00033727,"MEAN_MOTION_DDOT":0}]
